{
    "links": {
        "self": "http://www.neowsapp.com/rest/v1/neo/3720356?api_key=iIulBulltgU6a56xZRHN4H3l9WmuAYTsLGpBGhQ2"
    },
    "id": "3720356",
    "neo_reference_id": "3720356",
    "name": "(2015 KV121)",
    "designation": "2015 KV121",
    "nasa_jpl_url": "http://ssd.jpl.nasa.gov/sbdb.cgi?sstr=3720356",
    "absolute_magnitude_h": 22.6,
    "estimated_diameter": {
        "kilometers": {
            "estimated_diameter_min": 0.0802703167,
            "estimated_diameter_max": 0.1794898848
        },
        "meters": {
            "estimated_diameter_min": 80.2703167283,
            "estimated_diameter_max": 179.4898847799
        },
        "miles": {
            "estimated_diameter_min": 0.049877647,
            "estimated_diameter_max": 0.1115298092
        },
        "feet": {
            "estimated_diameter_min": 263.3540659348,
            "estimated_diameter_max": 588.8775935812
        }
    },
    "is_potentially_hazardous_asteroid": false,
    "close_approach_data": [
        {
            "close_approach_date": "2007-11-03",
            "close_approach_date_full": "2007-Nov-03 23:45",
            "epoch_date_close_approach": 1194133500000,
            "relative_velocity": {
                "kilometers_per_second": "25.4723815153",
                "kilometers_per_hour": "91700.5734550973",
                "miles_per_hour": "56979.1702115853"
            },
            "miss_distance": {
                "astronomical": "0.2950793859",
                "lunar": "114.7858811151",
                "kilometers": "44143247.611548033",
                "miles": "27429342.1503195354"
            },
            "orbiting_body": "Earth"
        },
        {
            "close_approach_date": "2015-05-17",
            "close_approach_date_full": "2015-May-17 23:54",
            "epoch_date_close_approach": 1431906840000,
            "relative_velocity": {
                "kilometers_per_second": "17.5367363585",
                "kilometers_per_hour": "63132.2508904294",
                "miles_per_hour": "39227.9255602226"
            },
            "miss_distance": {
                "astronomical": "0.1218430918",
                "lunar": "47.3969627102",
                "kilometers": "18227467.007494466",
                "miles": "11326022.8038009908"
            },
            "orbiting_body": "Earth"
        },
        {
            "close_approach_date": "2020-11-05",
            "close_approach_date_full": "2020-Nov-05 00:55",
            "epoch_date_close_approach": 1604537700000,
            "relative_velocity": {
                "kilometers_per_second": "24.6911553715",
                "kilometers_per_hour": "88888.1593375444",
                "miles_per_hour": "55231.645450598"
            },
            "miss_distance": {
                "astronomical": "0.2667671114",
                "lunar": "103.7724063346",
                "kilometers": "39907791.651492718",
                "miles": "24797551.8544787884"
            },
            "orbiting_body": "Earth"
        }
    ],
    "orbital_data": {
        "orbit_id": "8",
        "orbit_determination_date": "2017-04-06 08:33:26",
        "first_observation_date": "2015-05-24",
        "last_observation_date": "2015-06-12",
        "data_arc_in_days": 19,
        "observations_used": 66,
        "orbit_uncertainty": "8",
        "minimum_orbit_intersection": ".115413",
        "jupiter_tisserand_invariant": "4.862",
        "epoch_osculation": "2457168.5",
        "eccentricity": ".4766659225578029",
        "semi_major_axis": "1.278156609542782",
        "inclination": "24.81705497401412",
        "ascending_node_longitude": "68.55194015653989",
        "orbital_period": "527.8062542876862",
        "perihelion_distance": ".6689029100817184",
        "perihelion_argument": "67.27828694520116",
        "aphelion_distance": "1.887410309003846",
        "perihelion_time": "2457092.839320133028",
        "mean_anomaly": "51.60576353698085",
        "mean_motion": ".6820684618181472",
        "equinox": "J2000",
        "orbit_class": {
            "orbit_class_type": "APO",
            "orbit_class_description": "Near-Earth asteroid orbits which cross the Earth’s orbit similar to that of 1862 Apollo",
            "orbit_class_range": "a (semi-major axis) > 1.0 AU; q (perihelion) < 1.017 AU"
        }
    },
    "is_sentry_object": false
}